STARLINK-32956          
1 63570U 25076B   26068.42540277  .00029986  00000+0  10954-2 0  9998
2 63570  42.9961 326.4034 0000862  33.0326 327.0579 15.27560542 51746
REAL                    
1 64875U 25154G   26068.72233414  .00022901  00000+0  82904-3 0  9994
2 64875  97.4133 137.2581 0001853 118.5876 241.5550 15.28408058 34830
