[{"OBJECT_NAME":"STARLINK-32956","OBJECT_ID":"2025-076B","EPOCH":"2026-03-09T10:12:34.799328","MEAN_MOTION":15.27560542,"ECCENTRICITY":8.623e-5,"INCLINATION":42.9961,"RA_OF_ASC_NODE":326.4034,"ARG_OF_PERICENTER":33.0326,"MEAN_ANOMALY":327.0579,"EPHEMERIS_TYPE":0,"CLASSIFICATION_TYPE":"U","NORAD_CAT_ID":63570,"ELEMENT_SET_NO":999,"REV_AT_EPOCH":5174,"BSTAR":0.0010953967,"MEAN_MOTION_DOT":0.00029986,"MEAN_MOTION_DDOT":0},{"OBJECT_NAME":"REAL","OBJECT_ID":"2025-154G","EPOCH":"2026-03-09T17:20:09.670560","MEAN_MOTION":15.28408058,"ECCENTRICITY":0.00018528,"INCLINATION":97.4133,"RA_OF_ASC_NODE":137.2581,"ARG_OF_PERICENTER":118.5876,"MEAN_ANOMALY":241.555,"EPHEMERIS_TYPE":0,"CLASSIFICATION_TYPE":"U","NORAD_CAT_ID":64875,"ELEMENT_SET_NO":999,"REV_AT_EPOCH":3483,"BSTAR":0.0008290401,"MEAN_MOTION_DOT":0.00022901,"MEAN_MOTION_DDOT":0}]
